{
  "type": "FeatureCollection",
  "features": [
    {
      "type": "Feature",
      "properties": {
        "norad_id": 66675,
        "name": "TRANSPORTER-15 K",
        "group": "last-30-days",
        "lat": -53.9415111522986,
        "lon": -123.58077564932299,
        "alt_km": 519.1618995255167,
        "timestamp": "2025-12-21T03:56:49.615080+00:00",
        "meta_object_name": "TRANSPORTER-15 K",
        "meta_object_id": "2025-276K",
        "meta_epoch": "2025-12-20T15:50:02.774976",
        "meta_mean_motion": 15.16963926,
        "meta_eccentricity": 0.0004957,
        "meta_inclination": 97.4398,
        "meta_ra_of_asc_node": 66.2629,
        "meta_arg_of_pericenter": 268.6144,
        "meta_mean_anomaly": 91.4522,
        "meta_ephemeris_type": 0,
        "meta_classification_type": "U",
        "meta_norad_cat_id": 66675,
        "meta_element_set_no": 999,
        "meta_rev_at_epoch": 332,
        "meta_bstar": 0.00037802,
        "meta_mean_motion_dot": 7.399e-05,
        "meta_mean_motion_ddot": 0,
        "tle_line1": "1 66675U 25276K   25354.65975434  .00007399  00000+0  37802-3 0  9994",
        "tle_line2": "2 66675  97.4398  66.2629 0004957 268.6144  91.4522 15.16963926  3328"
      },
      "geometry": {
        "type": "Point",
        "coordinates": [
          -123.58077564932299,
          -53.9415111522986
        ]
      }
    },
    {
      "type": "Feature",
      "properties": {
        "norad_id": 66676,
        "name": "TRANSPORTER-15 L",
        "group": "last-30-days",
        "lat": -46.01502256225821,
        "lon": -121.02549351736171,
        "alt_km": 519.8555964877014,
        "timestamp": "2025-12-21T03:56:49.615089+00:00",
        "meta_object_name": "TRANSPORTER-15 L",
        "meta_object_id": "2025-276L",
        "meta_epoch": "2025-12-20T17:27:05.361696",
        "meta_mean_motion": 15.16766782,
        "meta_eccentricity": 0.0004774,
        "meta_inclination": 97.4396,
        "meta_ra_of_asc_node": 66.3263,
        "meta_arg_of_pericenter": 266.6594,
        "meta_mean_anomaly": 93.4094,
        "meta_ephemeris_type": 0,
        "meta_classification_type": "U",
        "meta_norad_cat_id": 66676,
        "meta_element_set_no": 999,
        "meta_rev_at_epoch": 333,
        "meta_bstar": 0.00026245,
        "meta_mean_motion_dot": 5.087e-05,
        "meta_mean_motion_ddot": 0,
        "tle_line1": "1 66676U 25276L   25354.72714539  .00005087  00000+0  26245-3 0  9991",
        "tle_line2": "2 66676  97.4396  66.3263 0004774 266.6594  93.4094 15.16766782  3334"
      },
      "geometry": {
        "type": "Point",
        "coordinates": [
          -121.02549351736171,
          -46.01502256225821
        ]
      }
    },
    {
      "type": "Feature",
      "properties": {
        "norad_id": 66677,
        "name": "TRANSPORTER-15 M",
        "group": "last-30-days",
        "lat": -81.0482137745769,
        "lon": -169.27937716041566,
        "alt_km": 518.4005717240534,
        "timestamp": "2025-12-21T03:56:49.615097+00:00",
        "meta_object_name": "TRANSPORTER-15 M",
        "meta_object_id": "2025-276M",
        "meta_epoch": "2025-12-20T18:52:09.306912",
        "meta_mean_motion": 15.17420178,
        "meta_eccentricity": 0.0003785,
        "meta_inclination": 97.4393,
        "meta_ra_of_asc_node": 66.3974,
        "meta_arg_of_pericenter": 273.7856,
        "meta_mean_anomaly": 86.2945,
        "meta_ephemeris_type": 0,
        "meta_classification_type": "U",
        "meta_norad_cat_id": 66677,
        "meta_element_set_no": 999,
        "meta_rev_at_epoch": 334,
        "meta_bstar": 0.00041821,
        "meta_mean_motion_dot": 8.301e-05,
        "meta_mean_motion_ddot": 0,
        "tle_line1": "1 66677U 25276M   25354.78621883  .00008301  00000+0  41821-3 0  9996",
        "tle_line2": "2 66677  97.4393  66.3974 0003785 273.7856  86.2945 15.17420178  3345"
      },
      "geometry": {
        "type": "Point",
        "coordinates": [
          -169.27937716041566,
          -81.0482137745769
        ]
      }
    },
    {
      "type": "Feature",
      "properties": {
        "norad_id": 66678,
        "name": "TRANSPORTER-15 N",
        "group": "last-30-days",
        "lat": -49.14536967222052,
        "lon": -121.92886476824076,
        "alt_km": 519.4098535717703,
        "timestamp": "2025-12-21T03:56:49.615106+00:00",
        "meta_object_name": "TRANSPORTER-15 N",
        "meta_object_id": "2025-276N",
        "meta_epoch": "2025-12-20T15:51:16.596000",
        "meta_mean_motion": 15.16822968,
        "meta_eccentricity": 0.0004817,
        "meta_inclination": 97.4431,
        "meta_ra_of_asc_node": 66.2709,
        "meta_arg_of_pericenter": 259.0358,
        "meta_mean_anomaly": 101.0333,
        "meta_ephemeris_type": 0,
        "meta_classification_type": "U",
        "meta_norad_cat_id": 66678,
        "meta_element_set_no": 999,
        "meta_rev_at_epoch": 332,
        "meta_bstar": 0.00030803,
        "meta_mean_motion_dot": 5.992e-05,
        "meta_mean_motion_ddot": 0,
        "tle_line1": "1 66678U 25276N   25354.66060875  .00005992  00000+0  30803-3 0  9993",
        "tle_line2": "2 66678  97.4431  66.2709 0004817 259.0358 101.0333 15.16822968  3322"
      },
      "geometry": {
        "type": "Point",
        "coordinates": [
          -121.92886476824076,
          -49.14536967222052
        ]
      }
    },
    {
      "type": "Feature",
      "properties": {
        "norad_id": 66679,
        "name": "TRANSPORTER-15 P",
        "group": "last-30-days",
        "lat": -43.27753761840559,
        "lon": -120.31775377013841,
        "alt_km": 520.2612831618153,
        "timestamp": "2025-12-21T03:56:49.615115+00:00",
        "meta_object_name": "TRANSPORTER-15 P",
        "meta_object_id": "2025-276P",
        "meta_epoch": "2025-12-20T19:02:47.529024",
        "meta_mean_motion": 15.16674627,
        "meta_eccentricity": 0.0004582,
        "meta_inclination": 97.4371,
        "meta_ra_of_asc_node": 66.3838,
        "meta_arg_of_pericenter": 267.1203,
        "meta_mean_anomaly": 92.9506,
        "meta_ephemeris_type": 0,
        "meta_classification_type": "U",
        "meta_norad_cat_id": 66679,
        "meta_element_set_no": 999,
        "meta_rev_at_epoch": 334,
        "meta_bstar": 0.00028955,
        "meta_mean_motion_dot": 5.604e-05,
        "meta_mean_motion_ddot": 0,
        "tle_line1": "1 66679U 25276P   25354.79360566  .00005604  00000+0  28955-3 0  9993",
        "tle_line2": "2 66679  97.4371  66.3838 0004582 267.1203  92.9506 15.16674627  3347"
      },
      "geometry": {
        "type": "Point",
        "coordinates": [
          -120.31775377013841,
          -43.27753761840559
        ]
      }
    },
    {
      "type": "Feature",
      "properties": {
        "norad_id": 66680,
        "name": "TRANSPORTER-15 Q",
        "group": "last-30-days",
        "lat": -50.281706170043975,
        "lon": -122.28987425508754,
        "alt_km": 519.5284872662633,
        "timestamp": "2025-12-21T03:56:49.615124+00:00",
        "meta_object_name": "TRANSPORTER-15 Q",
        "meta_object_id": "2025-276Q",
        "meta_epoch": "2025-12-20T19:00:57.313728",
        "meta_mean_motion": 15.16802227,
        "meta_eccentricity": 0.0004637,
        "meta_inclination": 97.4421,
        "meta_ra_of_asc_node": 66.3977,
        "meta_arg_of_pericenter": 255.7916,
        "meta_mean_anomaly": 104.2802,
        "meta_ephemeris_type": 0,
        "meta_classification_type": "U",
        "meta_norad_cat_id": 66680,
        "meta_element_set_no": 999,
        "meta_rev_at_epoch": 334,
        "meta_bstar": 0.0002494,
        "meta_mean_motion_dot": 4.835e-05,
        "meta_mean_motion_ddot": 0,
        "tle_line1": "1 66680U 25276Q   25354.79233002  .00004835  00000+0  24940-3 0  9994",
        "tle_line2": "2 66680  97.4421  66.3977 0004637 255.7916 104.2802 15.16802227  3349"
      },
      "geometry": {
        "type": "Point",
        "coordinates": [
          -122.28987425508754,
          -50.281706170043975
        ]
      }
    },
    {
      "type": "Feature",
      "properties": {
        "norad_id": 66681,
        "name": "TRANSPORTER-15 R",
        "group": "last-30-days",
        "lat": -73.11998301672224,
        "lon": -138.73623199879626,
        "alt_km": 518.1544808709123,
        "timestamp": "2025-12-21T03:56:49.615134+00:00",
        "meta_object_name": "TRANSPORTER-15 R",
        "meta_object_id": "2025-276R",
        "meta_epoch": "2025-12-20T14:09:56.462112",
        "meta_mean_motion": 15.17361541,
        "meta_eccentricity": 0.0004881,
        "meta_inclination": 97.4344,
        "meta_ra_of_asc_node": 66.1884,
        "meta_arg_of_pericenter": 285.4187,
        "meta_mean_anomaly": 74.6507,
        "meta_ephemeris_type": 0,
        "meta_classification_type": "U",
        "meta_norad_cat_id": 66681,
        "meta_element_set_no": 999,
        "meta_rev_at_epoch": 331,
        "meta_bstar": 0.00052853,
        "meta_mean_motion_dot": 0.00010495,
        "meta_mean_motion_ddot": 0,
        "tle_line1": "1 66681U 25276R   25354.59023683  .00010495  00000+0  52853-3 0  9998",
        "tle_line2": "2 66681  97.4344  66.1884 0004881 285.4187  74.6507 15.17361541  3319"
      },
      "geometry": {
        "type": "Point",
        "coordinates": [
          -138.73623199879626,
          -73.11998301672224
        ]
      }
    }
  ]
}